{"type": "FeatureCollection", "name": "parasail-mpa-registry", "attribution": "Marine protected area boundaries: WDPCA (UNEP-WCMC & IUCN) and OpenStreetMap contributors (ODbL)", "featureCount": 19, "features": [{"type": "Feature", "geometry": {"type": "Polygon", "coordinates": [[[88.96709633299997, 22.19263449999999], [88.97312249999997, 22.165992500000026], [88.9826375, 22.154574500000017], [88.98867272899997, 22.153188029], [88.9940555, 22.146010999999987], [88.99120099999999, 22.121271999999976], [88.972171, 22.079406000000006], [88.96455900000001, 22.049909500000012], [88.98168600000002, 22.040394499999984], [88.979783, 22.029927999999988], [88.97121950000003, 22.012801000000024], [88.97788000000003, 22.007092000000007], [88.9807345, 21.998528500000027], [88.97788000000003, 21.989964999999984], [88.98929800000002, 21.985207500000012], [88.995007, 21.973789500000006], [89.012134, 21.985207500000012], [89.0168915, 21.980450000000005], [89.01498850000002, 21.972838000000035], [89.0054735, 21.964274500000002], [89.00071600000001, 21.955711000000008], [89.0016675, 21.94714750000003], [89.03306700000003, 21.92526299999998], [89.02735799999999, 21.923360000000002], [89.023552, 21.9166995], [89.01498850000002, 21.891009000000007], [89.0168915, 21.883397000000024], [89.03021250000002, 21.869124500000012], [89.0340185, 21.860561000000033], [89.03306700000003, 21.83962800000001], [89.023552, 21.799665000000015], [89.02450349999998, 21.774925999999994], [89.03211549999997, 21.755896000000014], [89.05780600000003, 21.73210849999999], [89.059709, 21.72639950000001], [89.01023099999998, 21.71593300000001], [88.97883150000001, 21.731156999999993], [88.97883150000001, 21.73686600000002], [88.98929800000002, 21.740672000000032], [88.98549200000004, 21.74733250000002], [88.97883150000001, 21.74447800000002], [88.97026799999998, 21.735914499999975], [88.96360750000004, 21.753041500000013], [88.93030499999998, 21.764459499999994], [88.92459600000001, 21.75875050000003], [88.9274505, 21.746380999999985], [88.92554749999998, 21.731156999999993], [88.918887, 21.725447999999975], [88.87892399999998, 21.745429500000004], [88.87036049999999, 21.76541099999998], [88.852282, 21.774925999999994], [88.83991250000003, 21.773974500000012], [88.8303975, 21.776829000000014], [88.83610650000003, 21.804422499999987], [88.8303975, 21.842482500000024], [88.81802800000003, 21.847240000000006], [88.80185249999998, 21.841530999999975], [88.77901650000001, 21.842482500000024], [88.77140450000002, 21.84057949999999], [88.772356, 21.85390050000002], [88.77996799999998, 21.855803499999986], [88.77996799999998, 21.861512500000003], [88.77330749999999, 21.869124500000012], [88.77140450000002, 21.87768799999998], [88.7580835, 21.880542499999983], [88.75618050000001, 21.88720300000001], [88.74952000000002, 21.890057500000022], [88.74666549999999, 21.895766499999976], [88.72668399999998, 21.903378499999974], [88.72097500000001, 21.910038999999987], [88.71621750000003, 21.910990500000022], [88.71621750000003, 21.924311499999984], [88.72287799999997, 21.938583999999995], [88.7257325, 21.978547], [88.74856849999998, 21.984256000000016], [88.7580835, 22.006140500000022], [88.76093800000001, 22.021364500000004], [88.74952000000002, 22.048006499999996], [88.74856849999998, 22.064182000000024], [88.7542775, 22.068939500000006], [88.7580835, 22.07845450000002], [88.76474400000001, 22.08416349999999], [88.776162, 22.087018000000004], [88.7809195, 22.090824], [88.783774, 22.105096500000013], [88.80470700000001, 22.116514499999994], [88.80470700000001, 22.12602950000001], [88.812319, 22.128884000000024], [88.819931, 22.12602950000001], [88.84086400000001, 22.126981000000008], [88.84657299999998, 22.124126499999992], [88.85133050000002, 22.120320499999995], [88.85703949999997, 22.104145000000027], [88.871312, 22.090824], [88.8817785, 22.088921000000035], [88.89414799999997, 22.091775499999986], [88.90746899999999, 22.088921000000035], [88.9103235, 22.085114999999984], [88.92079000000001, 22.085114999999984], [88.93125650000002, 22.10890250000001], [88.92840200000002, 22.119368999999995], [88.91412950000002, 22.12983550000002], [88.9103235, 22.135544499999988], [88.90746899999999, 22.153622999999985], [88.896051, 22.163138], [88.896051, 22.168847000000028], [88.90271150000001, 22.17170149999998], [88.92079000000001, 22.16504099999998], [88.92649899999999, 22.178362000000007], [88.93506250000002, 22.178362000000007], [88.9464805, 22.18597399999999], [88.943626, 22.19358599999999], [88.95028650000002, 22.190731500000037], [88.960753, 22.190731500000037], [88.96709633299997, 22.19263449999999]]]}, "properties": {"name": "Sundarbans National Park", "authority": "UNEP-WCMC WDPCA", "desig": "World Heritage Site (natural or mixed)", "iucn_cat": "Not Applicable", "no_take": "Not Reported", "valid_from": "1987-01-01", "valid_to": null, "source": "wdpa", "origin": "wdpa:14177"}}, {"type": "Feature", "geometry": {"type": "Polygon", "coordinates": [[[85.1893, 19.47007000000002], [85.14228000000003, 19.451819999999994], [85.11937999999998, 19.477649999999993], [85.13123999999999, 19.54858999999999], [85.15165999999999, 19.576739999999976], [85.15057000000003, 19.61165000000001], [85.18313999999997, 19.62659000000003], [85.178540001, 19.660630000000033], [85.20994999999999, 19.679030000000015], [85.20731, 19.717879999999983], [85.23205999999999, 19.752169999999985], [85.26792999999998, 19.780170000000002], [85.30225999999999, 19.796], [85.33898, 19.80651999999998], [85.36738999999999, 19.83916], [85.39980999999999, 19.855669999999975], [85.4513, 19.912719999999986], [85.49158, 19.92014999999998], [85.53093999999999, 19.94461000000003], [85.56252, 19.928020000000014], [85.60093, 19.92649000000001], [85.59955000000002, 19.870020000000014], [85.59091000000001, 19.817990000000005], [85.61131, 19.78938000000001], [85.59523000000002, 19.756579999999992], [85.53159, 19.723819999999996], [85.59163, 19.71339999999998], [85.55785999999999, 19.682900000000025], [85.49540000000002, 19.65048999999999], [85.42982999999998, 19.623350000000027], [85.37288999999998, 19.59440000000002], [85.23408999999998, 19.50285000000003], [85.1893, 19.47007000000002]]]}, "properties": {"name": "Chilika Lake", "authority": "UNEP-WCMC WDPCA", "desig": "Wetland of International Importance (Ramsar Site)", "iucn_cat": "Not Reported", "no_take": "Not Reported", "valid_from": "1981-01-01", "valid_to": null, "source": "wdpa", "origin": "wdpa:68005"}}, {"type": "Feature", "geometry": {"type": "Polygon", "coordinates": [[[88.18853019699998, 21.423477131000038], [88.174813254, 21.456686570999985], [88.17048158799997, 21.497837398999994], [88.158208534, 21.523827395000023], [88.13943798100001, 21.55198322500002], [88.13727214800002, 21.572919610999982], [88.13871603600002, 21.60107544099998], [88.14449159100002, 21.620567938000022], [88.142501831, 21.637220383000006], [88.15389251699997, 21.65583229100004], [88.169037699, 21.67110404300002], [88.17625714299999, 21.657387099999998], [88.18058880900003, 21.632119048], [88.18997408500002, 21.60973877300001], [88.200081306, 21.597465719000013], [88.20777893100001, 21.604164124000025], [88.20083618199999, 21.620000839], [88.22029574800001, 21.650889601000024], [88.231109619, 21.64528083800002], [88.216308594, 21.627239227000032], [88.21945190399997, 21.614719390999987], [88.23055267299998, 21.609720229999983], [88.23040296900001, 21.593855996999984], [88.22679324699999, 21.585914609999975], [88.242225647, 21.597221375], [88.25422713199998, 21.600353497000015], [88.24416351299999, 21.58083343499999], [88.256668091, 21.56083107], [88.273612976, 21.559444427000024], [88.29104629400001, 21.575807388999984], [88.285270739, 21.590246276000023], [88.27371963000002, 21.602519330000007], [88.27805129600002, 21.624899604000003], [88.29682184900003, 21.666050432000027], [88.28382685100001, 21.694206262000037], [88.279167175, 21.716939926000016], [88.28415679900002, 21.750579834000018], [88.28250122100002, 21.76721954300001], [88.26484680200001, 21.75694274900002], [88.247729633, 21.774342085000008], [88.24203373699999, 21.799336622], [88.24487639300003, 21.811519433000008], [88.25990186000001, 21.824920524999992], [88.27086638999998, 21.830605837000014], [88.28264310700003, 21.83547896099999], [88.30010513600003, 21.834666774000024], [88.29029846200001, 21.823801041000042], [88.27110290500003, 21.81874084499998], [88.26139068600001, 21.811759949000027], [88.250561705, 21.809895059], [88.254432678, 21.791200638000024], [88.292877197, 21.774829865000015], [88.297668574, 21.727458038000016], [88.30723571800002, 21.723690033000032], [88.316754978, 21.727051943999992], [88.32365857000002, 21.725833663000017], [88.33015606999999, 21.720148352000024], [88.328330994, 21.71027946499999], [88.33249664300001, 21.702222823999996], [88.31513060300001, 21.70146804199999], [88.30829620399999, 21.706970215000002], [88.29631042500002, 21.70607948299999], [88.28944396999998, 21.70166778599997], [88.29555511500001, 21.695554732999998], [88.32947360700001, 21.688830255000035], [88.34454983500001, 21.67763729799998], [88.35414379899997, 21.667358051000015], [88.35871235299999, 21.656165094000013], [88.35807037400002, 21.64750099200001], [88.36990530999998, 21.646342702000023], [88.375387575, 21.642231004], [88.37675814099998, 21.62509892600003], [88.374702292, 21.607281565000008], [88.37972770099998, 21.604312005000004], [88.38589524899999, 21.60636785399999], [88.40371261000001, 21.622586221000002], [88.41627613399999, 21.62464207099998], [88.414220285, 21.635378172999996], [88.39868720099996, 21.654337671999997], [88.398230345, 21.685175411999975], [88.40462632100002, 21.69362723699999], [88.42455291700003, 21.709356308], [88.43990325900002, 21.709304809999995], [88.44367899800001, 21.747637698999995], [88.45190239599997, 21.781444998999977], [88.45916748000002, 21.791015625], [88.48510055499997, 21.81068374500002], [88.484795985, 21.82378026700002], [88.48083657199999, 21.828653390999985], [88.481819153, 21.835128784000013], [88.49111175500003, 21.830278396999972], [88.50946617699998, 21.80916089400001], [88.51007531800002, 21.80398319900002], [88.51921242600004, 21.814643159000017], [88.52225812900002, 21.824084836999994], [88.51616672300004, 21.828653390999985], [88.502765631, 21.832612804999993], [88.494542234, 21.841140772000028], [88.47687715799998, 21.88103947799999], [88.477414856, 21.893259890000035], [88.465637207, 21.896394729999997], [88.466145756, 21.904528990000014], [88.47315087200003, 21.91092496599999], [88.48716110499998, 21.918234653000013], [88.49386165099999, 21.927371761000018], [88.49386165099999, 21.94564597700003], [88.48533368300002, 21.950519101], [88.47893770799999, 21.95965621], [88.48198341, 21.97214359100003], [88.486551964, 21.978539566000002], [88.49903934500003, 21.986153822999995], [88.50401306200001, 21.981491088999984], [88.48716110499998, 21.96392019299999], [88.509933472, 21.950815201], [88.51714325, 21.94413948099998], [88.522819519, 21.933099747000032], [88.52188110399999, 21.92072105400003], [88.503890991, 21.90416717500001], [88.49497985800002, 21.883710861000008], [88.49694824199997, 21.875679015999985], [88.51918792700002, 21.858900070000004], [88.5261461, 21.860366300999996], [88.52492781900003, 21.87193997100002], [88.53345578599999, 21.881077079000026], [88.534369497, 21.893564460999986], [88.52827809199998, 21.90270156899999], [88.53223750500003, 21.908792974000004], [88.55394744900002, 21.902708054000023], [88.55751683800003, 21.90970668500001], [88.54228832400003, 21.917930081999998], [88.535587778, 21.924326058000027], [88.53619691900003, 21.94747339899999], [88.53041008399998, 21.970925309999988], [88.53750610399999, 21.978691100999985], [88.55447113499997, 21.967575037000014], [88.56025797000001, 21.95813335800001], [88.56513109500003, 21.967879606999997], [88.56604480499998, 21.984326402000026], [88.576095624, 21.991636088000018], [88.58645101399996, 21.991331517999996], [88.591933279, 22.005037180000006], [88.60167952699999, 22.016001710000012], [88.60838007299998, 22.029098232000027], [88.61690804099999, 22.040976472000022], [88.62873840299999, 22.051660538000025], [88.642796514, 22.05711869700003], [88.65999603300004, 22.05722045900002], [88.66750374999998, 22.06371173100002], [88.67816370999998, 22.067366574000015], [88.70471954300001, 22.065000533999967], [88.71248626699999, 22.05934143100001], [88.722326399, 22.062798020000013], [88.73511835099998, 22.081985947000028], [88.78750443799998, 22.127671487999972], [88.80583190900002, 22.130830764999985], [88.82362365699997, 22.130052567000014], [88.83349454900004, 22.116402387999994], [88.83897681399996, 22.103915007000015], [88.859687592, 22.089600204000035], [88.874306965, 22.095387039000002], [88.88984004899999, 22.095387039000002], [88.90780969500003, 22.101478444999998], [88.90628684400004, 22.118229809999995], [88.88344407300002, 22.151427968999993], [88.87491610599999, 22.176402731999996], [88.88070294099998, 22.181884997000004], [88.89411163300002, 22.17724227899999], [88.89842224099999, 22.170555115000017], [88.90602874799998, 22.173692702999986], [88.91201019300001, 22.185941695999993], [88.922846442, 22.185505998999993], [88.926196715, 22.190074552999995], [88.925283004, 22.19647052900001], [88.94264350999997, 22.199516231000022], [88.94538464200002, 22.205912206999976], [88.941123962, 22.225210189999984], [88.955001831, 22.216562270999987], [88.961222297, 22.207739629000013], [88.98650162899997, 22.212003612000004], [88.99858856200001, 22.210863113000013], [89.00447127500001, 22.17088662600003], [89.01756779700003, 22.149262136], [89.036827087, 22.14000129700002], [89.04010599700003, 22.127333077000007], [89.030055178, 22.116063977000017], [89.02016353800002, 22.097032721000012], [89.028656006, 22.067182541000026], [89.04611206099997, 22.038055419999978], [89.053192492, 22.01364814900001], [89.05427540800004, 21.97682898699998], [89.04194641100001, 21.945829391000032], [89.00608562299999, 21.91564420399999], [89.00500270700002, 21.88802983199997], [89.027547479, 21.864982576], [89.027547479, 21.847850456000018], [89.02088498799998, 21.826911198999994], [89.00717522399998, 21.802452688000024], [89.01768493700003, 21.76224136399998], [89.023423079, 21.75057808999998], [89.054840088, 21.72404098499999], [89.09497833299997, 21.65130806000004], [89.10193041999997, 21.63351771100004], [89.099223129, 21.62052271200002], [89.07540700700004, 21.599277154999978], [89.04130139900002, 21.575482544999996], [89.010368406, 21.56675785400001], [88.97150387599999, 21.546135859000014], [88.85253082600002, 21.49378771699997], [88.77876753499999, 21.50806448299999], [88.691520631, 21.53423855400002], [88.59713534500003, 21.512823405000002], [88.481334909, 21.49220141], [88.38377700799998, 21.549308473999993], [88.28225333799999, 21.51678917300001], [88.22673258100002, 21.477924643], [88.18853019699998, 21.423477131000038]]]}, "properties": {"name": "Sundarban Wetland", "authority": "UNEP-WCMC WDPCA", "desig": "Wetland of International Importance (Ramsar Site)", "iucn_cat": "Ia", "no_take": "Not Reported", "valid_from": "2019-01-01", "valid_to": null, "source": "wdpa", "origin": "wdpa:555795276"}}, {"type": "Feature", "geometry": {"type": "MultiPolygon", "coordinates": [[[[78.99583333300001, 9.222222222000038], [78.99583333300001, 9.166666667000012], [78.87500000000001, 9.166666666000033], [78.85833333300002, 9.155555556000024], [78.75, 9.123055556], [78.69444444499999, 9.125000000000018], [78.672222222, 9.154166665999982], [78.85833333300002, 9.205555554999991], [78.87500000000001, 9.223611111000025], [78.879166667, 9.222222222000038], [78.99583333300001, 9.222222222000038]]], [[[79.186111111, 9.166666666000033], [79.03472222300002, 9.166666667000012], [79.03472222200003, 9.218055556000033], [79.08527777699999, 9.234722222000025], [79.10277777699996, 9.234166667000022], [79.14027777799998, 9.221666667000022], [79.16805555500002, 9.21805555499999], [79.186111111, 9.166666666000033]]], [[[79.17916666600001, 9.194444443999991], [79.16805555600001, 9.241666666000016], [79.17916666600001, 9.25000000000001], [79.20277777799998, 9.252777777000016], [79.21944444399998, 9.25000000000001], [79.23611111100003, 9.252777778000008], [79.25, 9.251388888999996], [79.25, 9.223611111000025], [79.17916666600001, 9.194444443999991]]], [[[78.622222222, 9.10416666700003], [78.47500000000002, 9.04166666600004], [78.455555556, 9.093055554999985], [78.57777777799998, 9.120833333000007], [78.622222222, 9.10416666700003]]], [[[78.24166666999997, 8.816666666999996], [78.19166667000002, 8.816666666999996], [78.23333333, 8.94999999999999], [78.26249999999999, 8.975000000000026], [78.30833332999998, 8.925000000000017], [78.24166666999997, 8.816666666999996]]]]}, "properties": {"name": "Gulf of Mannar Marine Biosphere Reserve", "authority": "UNEP-WCMC WDPCA", "desig": "Wetland of International Importance (Ramsar Site)", "iucn_cat": "Not Reported", "no_take": "Not Reported", "valid_from": "2022-01-01", "valid_to": null, "source": "wdpa", "origin": "wdpa:555795353"}}, {"type": "Feature", "geometry": {"type": "Polygon", "coordinates": [[[79.797033833, 11.45238180799998], [79.805432177, 11.44430604600001], [79.809005431, 11.435121040000025], [79.80901955500003, 11.41990057599998], [79.805269431, 11.40737607000001], [79.791214485, 11.415955402000014], [79.784165928, 11.425660639999995], [79.78247672399999, 11.425775966999993], [79.783201732, 11.422113264000018], [79.78835211500001, 11.415409292], [79.78089669699999, 11.420709579], [79.77722276899999, 11.426576301000022], [79.77372213299998, 11.426909362000014], [79.76695966599999, 11.420757404000028], [79.77365279000003, 11.427224919000022], [79.78459479200001, 11.429723879999992], [79.784997885, 11.434801048000006], [79.773715424, 11.457497428000018], [79.77387549100001, 11.46647999599998], [79.784722853, 11.466763696999983], [79.79523027599998, 11.457384440000007], [79.797033833, 11.45238180799998]]]}, "properties": {"name": "Pichavaram Mangrove", "authority": "UNEP-WCMC WDPCA", "desig": "Wetland of International Importance (Ramsar Site)", "iucn_cat": "V", "no_take": "Not Reported", "valid_from": "2022-01-01", "valid_to": null, "source": "wdpa", "origin": "wdpa:555795363"}}, {"type": "Feature", "geometry": {"type": "Polygon", "coordinates": [[[72.927353606, 19.095570743], [72.93006842900002, 19.102375277000025], [72.933660353, 19.102430726000026], [72.93476740099999, 19.108138304000022], [72.93876652099999, 19.106904573000023], [72.94115599100002, 19.112687877], [72.93755235100004, 19.113499745000013], [72.94301679699998, 19.116318427000014], [72.94164889400002, 19.123154171999992], [72.93807312899997, 19.12212183700001], [72.940447211, 19.127524543999986], [72.94351734899999, 19.120251499999995], [72.95557865299998, 19.12045292800002], [72.95726909400003, 19.12491629300003], [72.955828333, 19.126838716000005], [72.94333269499998, 19.12807299399998], [72.94328298099998, 19.132432116000025], [72.95510528900002, 19.151428064000026], [72.962743445, 19.148470104000015], [72.96053423400002, 19.143675219000002], [72.95712805199997, 19.14230573100002], [72.95801912600001, 19.14021719700003], [72.96420068600003, 19.142584183999993], [72.96286838100002, 19.148565508999983], [72.95527450399999, 19.151737834000013], [72.96279479200001, 19.162722906], [72.97314872800001, 19.168425941000013], [72.96796067100001, 19.170395196000015], [72.97146694000003, 19.17100674599999], [72.97408695399997, 19.168397314999986], [72.97608920800002, 19.17011157600003], [72.97387847200002, 19.17649442], [72.97556459600003, 19.18022375100002], [72.980916562, 19.179158013999995], [72.98273904500002, 19.182236891999985], [72.98100367199999, 19.187472843000034], [72.985998263, 19.188833155], [72.988596557, 19.18307934500001], [72.98452910499998, 19.171550384000007], [72.99100964000002, 19.170888987000012], [72.98893066099998, 19.161407267000016], [72.99317227199998, 19.156401621999983], [72.98971920700001, 19.155390097000005], [72.992930414, 19.15384281000002], [72.99279273000002, 19.15158385699999], [72.989451718, 19.151723715], [72.98731655900004, 19.15503268700002], [72.98492368500001, 19.153665247999992], [72.986636439, 19.150748404999998], [72.98431791000002, 19.150480019999982], [72.98497085499997, 19.147842202999993], [72.98702123599998, 19.148053650000016], [72.983768161, 19.137680400000033], [72.98596726, 19.136343738999994], [72.98866760099997, 19.142744618999988], [72.99586772100002, 19.141924828000025], [72.99630156400002, 19.135778435000027], [72.99249496099998, 19.132549074000003], [72.99405295100001, 19.12824391599998], [72.98880139900001, 19.127588321000022], [72.98665155499998, 19.119414367999976], [72.98893644399999, 19.11876869899999], [72.98877062300001, 19.114780274000005], [72.99283401000002, 19.116852272000006], [73.001279324, 19.110529341000014], [72.99790335400002, 19.10956898900002], [72.99626537000002, 19.096235058000005], [72.99230979700002, 19.095661678999992], [73.00030487499998, 19.093524659000025], [73.00540323299998, 19.097340380000002], [73.00539348900003, 19.09235973400001], [72.98894607300002, 19.07600582800002], [72.98464420200003, 19.07556606700002], [72.985197744, 19.06859246099999], [72.98181831099998, 19.065323298000013], [72.936891548, 19.051427343999997], [72.94219469799998, 19.056296357999997], [72.93867119200002, 19.05897029800003], [72.93419612500003, 19.058444302999998], [72.93291554899997, 19.05599891499997], [72.93285811999999, 19.05877906000001], [72.92940096000001, 19.056836465999993], [72.93279518700001, 19.06034779499998], [72.93708492299999, 19.059280903999987], [72.931649693, 19.072819626], [72.92782374799998, 19.07508794199998], [72.92184914500001, 19.073018967000003], [72.91799411300002, 19.077677456999993], [72.92103316499998, 19.083543200999998], [72.922181523, 19.08024409000001], [72.928915018, 19.078781236999998], [72.93093109900002, 19.075060533999995], [72.93604540000003, 19.080207508999994], [72.93402329399999, 19.081828104000028], [72.93112729500002, 19.07903792399998], [72.926343831, 19.07927584599998], [72.92102909200003, 19.08384818100002], [72.92395832800003, 19.08751618100002], [72.927353606, 19.095570743]]]}, "properties": {"name": "Thane Creek", "authority": "UNEP-WCMC WDPCA", "desig": "Wetland of International Importance (Ramsar Site)", "iucn_cat": "Not Reported", "no_take": "Not Reported", "valid_from": "2022-01-01", "valid_to": null, "source": "wdpa", "origin": "wdpa:555795371"}}, {"type": "Feature", "geometry": {"type": "Polygon", "coordinates": [[[88.3180806, 21.6096034], [88.346225, 21.6304629], [88.3474105, 21.6550924], [88.3464235, 21.6619477], [88.3435549, 21.6648716], [88.3453358, 21.6723485], [88.348989, 21.6758256], [88.3483574, 21.6802735], [88.3427341, 21.6917047], [88.3291366, 21.7067411], [88.3023226, 21.7067536], [88.299918, 21.7028883], [88.313152, 21.6866577], [88.3170774, 21.6719558], [88.314304, 21.6521282], [88.3060294, 21.631545], [88.3062172, 21.6138015], [88.3116352, 21.6084799], [88.3175455, 21.6092343], [88.3180806, 21.6096034]]]}, "properties": {"name": "Lothian Island WLS", "authority": "MoEFCC / State WLPA (via OpenStreetMap)", "desig": "Wildlife Sanctuary (Sundarbans)", "iucn_cat": null, "no_take": null, "valid_from": null, "valid_to": null, "source": "osm", "origin": "osm:way/22825809"}}, {"type": "Feature", "geometry": {"type": "Polygon", "coordinates": [[[85.3070599, 19.6827113], [85.2962598, 19.6848522], [85.291286, 19.6906056], [85.2956914, 19.7003725], [85.3033651, 19.7050551], [85.3134548, 19.7047875], [85.3258181, 19.6963588], [85.324397, 19.6907394], [85.3154443, 19.6885986], [85.3101863, 19.683648], [85.3070599, 19.6827113]]]}, "properties": {"name": "Chilikha (Nalabana) WLS", "authority": "MoEFCC / State WLPA (via OpenStreetMap)", "desig": "Wildlife Sanctuary (Chilika lagoon)", "iucn_cat": null, "no_take": null, "valid_from": null, "valid_to": null, "source": "osm", "origin": "osm:way/86140211"}}, {"type": "Feature", "geometry": {"type": "Polygon", "coordinates": [[[71.3005822, 24.4958973], [71.2332909, 24.4515257], [70.8508273, 24.0765616], [70.2822849, 24.1818389], [69.7769151, 24.1455017], [69.7765728, 24.0621397], [69.7769162, 23.9765286], [69.8174282, 23.9583329], [69.9211117, 23.9219336], [69.9588772, 23.8961969], [69.965057, 23.8836406], [69.9427411, 23.8352873], [69.9355313, 23.8133025], [69.9451443, 23.7840885], [69.954414, 23.7661798], [69.9575039, 23.7501542], [69.9526974, 23.7400979], [69.9252316, 23.7246977], [69.9193951, 23.7118105], [69.9341576, 23.6659092], [69.8778527, 23.4317497], [69.9077223, 23.4407267], [69.9188803, 23.4465539], [69.9320982, 23.4470263], [69.9798201, 23.4325367], [69.992523, 23.4341118], [70.1655577, 23.4141074], [70.2458947, 23.4103272], [70.3004834, 23.4235588], [70.333099, 23.5293665], [70.3523251, 23.5737426], [70.3845974, 23.6008015], [70.4285427, 23.6187329], [70.462875, 23.6574184], [70.5775445, 23.720612], [70.6345361, 23.7815754], [70.6345361, 23.821155], [70.591964, 23.8757925], [70.5796044, 23.9178541], [70.582351, 23.9385659], [70.6297295, 23.939821], [70.6723016, 23.9322899], [70.7684319, 23.8946277], [70.9551995, 23.8670018], [71.1172472, 23.9561376], [71.2092577, 24.0000548], [71.2462158, 24.08925], [71.2463372, 24.1599114], [71.2635033, 24.2532257], [71.3040154, 24.3358363], [71.297149, 24.4165174], [71.3005822, 24.4502756], [71.3005822, 24.4958973]]]}, "properties": {"name": "Kachchh Desert WLS", "authority": "MoEFCC / State WLPA (via OpenStreetMap)", "desig": "Wildlife Sanctuary (coastal desert / mudflats)", "iucn_cat": null, "no_take": null, "valid_from": null, "valid_to": null, "source": "osm", "origin": "osm:way/669220103"}}, {"type": "Feature", "geometry": {"type": "Polygon", "coordinates": [[[87.0573803, 20.7516196], [87.1341131, 20.784042], [87.2998523, 20.7166209], [87.2674939, 20.6331059], [87.0005606, 20.4159128], [86.9519804, 20.283775], [86.7535394, 20.3233803], [86.7823785, 20.3600783], [86.7791174, 20.3718257], [86.761608, 20.3706993], [86.7456434, 20.356859], [86.7339705, 20.3529964], [86.7176626, 20.3563762], [86.7145727, 20.3613653], [86.7190359, 20.3864692], [86.7181776, 20.3938708], [86.7305371, 20.4109256], [86.7329403, 20.4530714], [86.7363736, 20.4646514], [86.7542263, 20.4977783], [86.761136, 20.5033654], [86.7720793, 20.505496], [86.782379, 20.5337915], [86.7937086, 20.5460083], [87.0426175, 20.7073082], [87.0185849, 20.7015275], [87.0003888, 20.702491], [87.0051953, 20.7294655], [87.0096585, 20.7400613], [87.0573803, 20.7516196]]]}, "properties": {"name": "Gahirmatha (Marine) WLS", "authority": "MoEFCC / State WLPA (via OpenStreetMap)", "desig": "Wildlife Sanctuary (marine)", "iucn_cat": null, "no_take": null, "valid_from": null, "valid_to": null, "source": "osm", "origin": "osm:way/669652446"}}, {"type": "Feature", "geometry": {"type": "Polygon", "coordinates": [[[86.761136, 20.5033654], [86.7577886, 20.5204079], [86.7538833, 20.5260347], [86.7377471, 20.5306566], [86.7341852, 20.5348362], [86.7341423, 20.5472942], [86.7184006, 20.5549358], [86.7143583, 20.5663006], [86.7206668, 20.5730909], [86.7141437, 20.58197], [86.7163753, 20.5924155], [86.7240572, 20.5945848], [86.7307949, 20.6016149], [86.7476177, 20.6106932], [86.7678308, 20.6179635], [86.7753409, 20.6356761], [86.7753409, 20.643387], [86.7985151, 20.6406561], [86.8184279, 20.6337483], [86.8240927, 20.6396922], [86.825981, 20.6493305], [86.8220328, 20.6581651], [86.8093298, 20.6700508], [86.8022917, 20.6708539], [86.8236393, 20.7095908], [86.8280196, 20.7085653], [86.8277518, 20.7034144], [86.8324066, 20.7013589], [86.8324112, 20.6972385], [86.8367909, 20.69647], [86.8373443, 20.6908051], [86.848294, 20.6877248], [86.8496656, 20.6843782], [86.8576503, 20.6809085], [86.8627835, 20.6898184], [86.8707316, 20.6921284], [86.8760561, 20.6981921], [86.8870067, 20.6947828], [86.8894111, 20.6927742], [86.8764925, 20.6813332], [86.8929118, 20.67192], [86.8866634, 20.6678021], [86.8905914, 20.6635494], [86.8897765, 20.6553081], [86.8776103, 20.6443546], [86.8696784, 20.6421603], [86.8665436, 20.628509], [86.8610774, 20.6230966], [86.860947, 20.6166583], [86.8524694, 20.614591], [86.8511063, 20.6099543], [86.847277, 20.6099511], [86.845094, 20.6047986], [86.8461906, 20.6022242], [86.8489252, 20.6027417], [86.8487479, 20.5999592], [86.8419572, 20.5960398], [86.8412836, 20.5867682], [86.8371819, 20.5862494], [86.8336321, 20.5812237], [86.8306236, 20.5814782], [86.8289878, 20.5769704], [86.823796, 20.5736174], [86.8248376, 20.5666133], [86.7918769, 20.5432467], [86.7845035, 20.5342434], [86.7746758, 20.5085193], [86.7675063, 20.5036719], [86.7620748, 20.5037309], [86.761136, 20.5033654]]]}, "properties": {"name": "Bhitarkanika WLS", "authority": "MoEFCC / State WLPA (via OpenStreetMap)", "desig": "Wildlife Sanctuary / National Park", "iucn_cat": null, "no_take": null, "valid_from": null, "valid_to": null, "source": "osm", "origin": "osm:way/669656035"}}, {"type": "Feature", "geometry": {"type": "Polygon", "coordinates": [[[79.845103, 10.3345835], [79.8643827, 10.3352906], [79.8711204, 10.2987902], [79.8742103, 10.2986635], [79.873867, 10.29461], [79.8699751, 10.2887988], [79.8564863, 10.2822169], [79.8338699, 10.2767063], [79.8333013, 10.2824174], [79.8291385, 10.2871203], [79.8350984, 10.2925885], [79.831869, 10.2984577], [79.8333549, 10.3024637], [79.8317349, 10.3047384], [79.8375982, 10.3173312], [79.8389983, 10.3292744], [79.8448563, 10.3341507], [79.845103, 10.3345835]]]}, "properties": {"name": "Point Calimere WLS", "authority": "MoEFCC / State WLPA (via OpenStreetMap)", "desig": "Wildlife Sanctuary (coastal)", "iucn_cat": null, "no_take": null, "valid_from": null, "valid_to": null, "source": "osm", "origin": "osm:way/671269863"}}, {"type": "Feature", "geometry": {"type": "Polygon", "coordinates": [[[72.5337277, 10.7745829], [72.5337235, 10.775098], [72.5332027, 10.7750938], [72.5331983, 10.7756088], [72.5342391, 10.7757455], [72.5347611, 10.7756213], [72.5351554, 10.7751093], [72.5352903, 10.7745954], [72.5347706, 10.774462], [72.5337277, 10.7745829]]]}, "properties": {"name": "Pitti WLS (Bird)", "authority": "MoEFCC / State WLPA (via OpenStreetMap)", "desig": "Wildlife Sanctuary (bird island)", "iucn_cat": null, "no_take": null, "valid_from": null, "valid_to": null, "source": "osm", "origin": "osm:way/677910591"}}, {"type": "Feature", "geometry": {"type": "Polygon", "coordinates": [[[73.4708333, 16.045], [73.4616667, 16.0483333], [73.4166667, 16.0333333], [73.45, 16.0333333], [73.4708333, 16.045]]]}, "properties": {"name": "Malvan Marine Sanctuary", "authority": "MoEFCC / State WLPA (via OpenStreetMap)", "desig": "Marine Sanctuary", "iucn_cat": null, "no_take": null, "valid_from": null, "valid_to": null, "source": "osm", "origin": "osm:way/678002187"}}, {"type": "Feature", "geometry": {"type": "Polygon", "coordinates": [[[88.6304158, 21.6653204], [88.6290264, 21.6584951], [88.6318105, 21.6567651], [88.6346537, 21.6720805], [88.6304694, 21.6654051], [88.6304158, 21.6653204]]]}, "properties": {"name": "Haliday Island WLS", "authority": "MoEFCC / State WLPA (via OpenStreetMap)", "desig": "Wildlife Sanctuary (Sundarbans)", "iucn_cat": null, "no_take": null, "valid_from": null, "valid_to": null, "source": "osm", "origin": "osm:way/1020199995"}}, {"type": "Feature", "geometry": {"type": "MultiPolygon", "coordinates": [[[[69.2928741, 22.4560514], [69.3153189, 22.4478413], [69.3245886, 22.4494279], [69.3654442, 22.5111099], [69.3648648, 22.5154312], [69.3532133, 22.5275618], [69.3305969, 22.5295636], [69.3164027, 22.5257086], [69.2903851, 22.4595218], [69.2920589, 22.4565074], [69.2928741, 22.4560514]]], [[[69.3354668, 22.297676], [69.3380526, 22.2997566], [69.3421024, 22.29775], [69.3711089, 22.2986263], [69.3767737, 22.2875876], [69.4029521, 22.2873493], [69.4159984, 22.2810751], [69.4264697, 22.2804397], [69.4384002, 22.2935438], [69.4467258, 22.2871905], [69.4656085, 22.2885406], [69.4676684, 22.292432], [69.4789981, 22.2928291], [69.4801997, 22.3085525], [69.4680118, 22.3252268], [69.4801139, 22.3316578], [69.4830321, 22.3295142], [69.4929027, 22.335945], [69.4923877, 22.3537275], [69.5036315, 22.3642053], [69.5352172, 22.3661897], [69.5578764, 22.3757936], [69.5511816, 22.4051568], [69.5300673, 22.4235651], [69.4996832, 22.4440336], [69.4662092, 22.4184872], [69.4564246, 22.3952374], [69.4529055, 22.370714], [69.4609737, 22.3519811], [69.4413183, 22.3402322], [69.4134232, 22.3282441], [69.3255326, 22.3305466], [69.3209835, 22.3059322], [69.3354668, 22.297676]]], [[[69.8441184, 22.5174137], [69.8572466, 22.4961153], [69.8790201, 22.4875359], [69.8998331, 22.4878317], [69.9485034, 22.4972986], [70.0464845, 22.5759675], [70.0570511, 22.5898629], [70.0570511, 22.6146939], [70.0429623, 22.6276988], [69.9385773, 22.6182408], [69.9123209, 22.608191], [69.8463598, 22.5348642], [69.8441184, 22.5174137]]]]}, "properties": {"name": "Marine (Gulf of Kachchh) National Park", "authority": "MoEFCC / State WLPA (via OpenStreetMap)", "desig": "National Park (marine)", "iucn_cat": null, "no_take": null, "valid_from": null, "valid_to": null, "source": "osm", "origin": "osm:relation/8334753"}}, {"type": "Feature", "geometry": {"type": "MultiPolygon", "coordinates": [[[[79.1711281, 9.2539363], [79.1880797, 9.2564777], [79.2414665, 9.2497852], [79.2414665, 9.2388145], [79.1781234, 9.2100518], [79.1711281, 9.2539363]]], [[[79.0411374, 9.1763303], [79.0387341, 9.218355], [79.0933224, 9.2315714], [79.1746899, 9.2190328], [79.1805264, 9.190565], [79.0411374, 9.1763303]]], [[[78.4631859, 9.1061664], [78.4715998, 9.0573134], [78.6055537, 9.0898021], [78.5814664, 9.1241756], [78.4631859, 9.1061664]], [[78.5354421, 9.1021603], [78.538768, 9.1057939], [78.5351819, 9.1022186], [78.5354421, 9.1021603]]], [[[78.1916786, 8.8166547], [78.2240713, 8.9448494], [78.2625639, 8.9748958], [78.308336, 8.9250083], [78.2416633, 8.8166692], [78.1916786, 8.8166547]]], [[[78.6782944, 9.1637331], [78.6850427, 9.1160044], [78.7589257, 9.1170131], [78.8653561, 9.155655], [78.8835522, 9.1665012], [78.9972102, 9.1740711], [78.9987569, 9.2200714], [78.8945385, 9.215305], [78.8608929, 9.1953098], [78.6782944, 9.1637331]]]]}, "properties": {"name": "Gulf of Mannar Marine National Park", "authority": "MoEFCC / State WLPA (via OpenStreetMap)", "desig": "National Park (marine)", "iucn_cat": null, "no_take": null, "valid_from": null, "valid_to": null, "source": "osm", "origin": "osm:relation/415570"}}, {"type": "Feature", "geometry": {"type": "Polygon", "coordinates": [[[82.2500467, 16.8538955], [82.2500682, 16.8463998], [82.243309, 16.8433603], [82.2370434, 16.8319618], [82.236743, 16.8271763], [82.2433948, 16.8200697], [82.2505188, 16.8187552], [82.2556257, 16.8025281], [82.2692084, 16.7995803], [82.270174, 16.7971871], [82.2791004, 16.793736], [82.2920608, 16.7844917], [82.2931337, 16.7799104], [82.3034978, 16.7809992], [82.300086, 16.7719392], [82.3040342, 16.7559135], [82.3136902, 16.748044], [82.3213506, 16.7361877], [82.33783, 16.7438933], [82.3490095, 16.8029389], [82.3473143, 16.8092656], [82.3536229, 16.8419638], [82.3531508, 16.8499937], [82.3492241, 16.8495829], [82.3383879, 16.8546554], [82.3261571, 16.8539982], [82.3198056, 16.8506303], [82.3161149, 16.842354], [82.3130893, 16.8429085], [82.2975539, 16.852109], [82.2950648, 16.8582697], [82.2956657, 16.8663195], [82.2925758, 16.8697693], [82.2760963, 16.8771614], [82.2711181, 16.8757651], [82.2594237, 16.8877666], [82.2507763, 16.8809601], [82.2483408, 16.8751183], [82.2492528, 16.8671203], [82.2421717, 16.8619455], [82.2465062, 16.8576125], [82.2461092, 16.8537005], [82.2500467, 16.8538955]]]}, "properties": {"name": "Coringa WLS", "authority": "MoEFCC / State WLPA (via OpenStreetMap)", "desig": "Wildlife Sanctuary (mangrove)", "iucn_cat": null, "no_take": null, "valid_from": null, "valid_to": null, "source": "osm", "origin": "osm:relation/14697187"}}, {"type": "Feature", "geometry": {"type": "Polygon", "coordinates": [[[72.9814554, 19.1596174], [72.9832683, 19.1738021], [72.9786627, 19.1752136], [72.9737234, 19.146648], [72.9591751, 19.1324376], [72.9607066, 19.1257954], [72.951622, 19.1104811], [72.9439401, 19.1144956], [72.9527592, 19.10598], [72.9484248, 19.0962474], [72.9491758, 19.0830061], [72.9533815, 19.0679993], [72.9425025, 19.0592785], [72.9433811, 19.0543222], [72.952591, 19.057441], [72.9548621, 19.0661335], [72.9675865, 19.0678371], [72.9681014, 19.0968355], [72.9806327, 19.1467089], [72.9814554, 19.1596174]]]}, "properties": {"name": "Thane Creek Flamingo Sanctuary", "authority": "MoEFCC / State WLPA (via OpenStreetMap)", "desig": "Wildlife Sanctuary (coastal)", "iucn_cat": null, "no_take": null, "valid_from": null, "valid_to": null, "source": "osm", "origin": "osm:relation/15073373"}}]}